[{"OBJECT_NAME":"JCSAT-18 (KACIFIC 1)","OBJECT_ID":"2019-091A","EPOCH":"2026-03-02T19:53:38.746752","MEAN_MOTION":1.00271459,"ECCENTRICITY":2.12e-5,"INCLINATION":0.0421,"RA_OF_ASC_NODE":306.01,"ARG_OF_PERICENTER":18.0065,"MEAN_ANOMALY":285.0089,"EPHEMERIS_TYPE":0,"CLASSIFICATION_TYPE":"U","NORAD_CAT_ID":44868,"ELEMENT_SET_NO":999,"REV_AT_EPOCH":2294,"BSTAR":0,"MEAN_MOTION_DOT":-2.17e-6,"MEAN_MOTION_DDOT":0},{"OBJECT_NAME":"ELEKTRO-L 3","OBJECT_ID":"2019-095A","EPOCH":"2026-03-02T21:21:50.425344","MEAN_MOTION":1.00270222,"ECCENTRICITY":0.0001703,"INCLINATION":0.0318,"RA_OF_ASC_NODE":324.4879,"ARG_OF_PERICENTER":358.3374,"MEAN_ANOMALY":234.2532,"EPHEMERIS_TYPE":0,"CLASSIFICATION_TYPE":"U","NORAD_CAT_ID":44903,"ELEMENT_SET_NO":999,"REV_AT_EPOCH":2264,"BSTAR":0,"MEAN_MOTION_DOT":-1.12e-6,"MEAN_MOTION_DDOT":0},{"OBJECT_NAME":"SHIJIAN-20 (SJ-20)","OBJECT_ID":"2019-097A","EPOCH":"2026-03-02T17:12:51.453216","MEAN_MOTION":1.0008295,"ECCENTRICITY":1.24e-5,"INCLINATION":4.6452,"RA_OF_ASC_NODE":76.3699,"ARG_OF_PERICENTER":16.2606,"MEAN_ANOMALY":43.3034,"EPHEMERIS_TYPE":0,"CLASSIFICATION_TYPE":"U","NORAD_CAT_ID":44910,"ELEMENT_SET_NO":999,"REV_AT_EPOCH":2263,"BSTAR":0,"MEAN_MOTION_DOT":-8.2e-7,"MEAN_MOTION_DDOT":0},{"OBJECT_NAME":"TJS-5","OBJECT_ID":"2020-002A","EPOCH":"2026-03-02T21:33:21.856032","MEAN_MOTION":1.00273114,"ECCENTRICITY":0.0004057,"INCLINATION":0.2832,"RA_OF_ASC_NODE":269.7409,"ARG_OF_PERICENTER":120.4553,"MEAN_ANOMALY":201.3294,"EPHEMERIS_TYPE":0,"CLASSIFICATION_TYPE":"U","NORAD_CAT_ID":44978,"ELEMENT_SET_NO":999,"REV_AT_EPOCH":2263,"BSTAR":0,"MEAN_MOTION_DOT":-3.59e-6,"MEAN_MOTION_DDOT":0},{"OBJECT_NAME":"GSAT-30","OBJECT_ID":"2020-005A","EPOCH":"2026-03-02T15:48:26.553024","MEAN_MOTION":1.00270777,"ECCENTRICITY":5.02e-5,"INCLINATION":0.0275,"RA_OF_ASC_NODE":249.9445,"ARG_OF_PERICENTER":176.3195,"MEAN_ANOMALY":54.2433,"EPHEMERIS_TYPE":0,"CLASSIFICATION_TYPE":"U","NORAD_CAT_ID":45026,"ELEMENT_SET_NO":999,"REV_AT_EPOCH":2244,"BSTAR":0,"MEAN_MOTION_DOT":-1.81e-6,"MEAN_MOTION_DDOT":0},{"OBJECT_NAME":"EUTELSAT KONNECT","OBJECT_ID":"2020-005B","EPOCH":"2026-03-02T14:08:45.831840","MEAN_MOTION":1.00271015,"ECCENTRICITY":0.0001032,"INCLINATION":0.0686,"RA_OF_ASC_NODE":97.521,"ARG_OF_PERICENTER":221.0529,"MEAN_ANOMALY":61.1603,"EPHEMERIS_TYPE":0,"CLASSIFICATION_TYPE":"U","NORAD_CAT_ID":45027,"ELEMENT_SET_NO":999,"REV_AT_EPOCH":2326,"BSTAR":0,"MEAN_MOTION_DOT":3.2e-7,"MEAN_MOTION_DDOT":0},{"OBJECT_NAME":"BLOCK DM-SL DEB","OBJECT_ID":"2019-095C","EPOCH":"2026-02-28T05:40:08.003136","MEAN_MOTION":1.03004701,"ECCENTRICITY":0.03897686,"INCLINATION":5.0866,"RA_OF_ASC_NODE":74.7057,"ARG_OF_PERICENTER":5.5175,"MEAN_ANOMALY":355.1002,"EPHEMERIS_TYPE":0,"CLASSIFICATION_TYPE":"U","NORAD_CAT_ID":45041,"ELEMENT_SET_NO":999,"REV_AT_EPOCH":2321,"BSTAR":0,"MEAN_MOTION_DOT":-5.0e-7,"MEAN_MOTION_DDOT":0},{"OBJECT_NAME":"JCSAT-17","OBJECT_ID":"2020-013A","EPOCH":"2026-03-02T20:00:38.438208","MEAN_MOTION":1.00270289,"ECCENTRICITY":0.0004808,"INCLINATION":5.3951,"RA_OF_ASC_NODE":355.8218,"ARG_OF_PERICENTER":348.7779,"MEAN_ANOMALY":252.1235,"EPHEMERIS_TYPE":0,"CLASSIFICATION_TYPE":"U","NORAD_CAT_ID":45245,"ELEMENT_SET_NO":999,"REV_AT_EPOCH":2216,"BSTAR":0,"MEAN_MOTION_DOT":-3.3e-6,"MEAN_MOTION_DDOT":0},{"OBJECT_NAME":"GEO-KOMPSAT-2B","OBJECT_ID":"2020-013B","EPOCH":"2026-03-02T19:42:42.765120","MEAN_MOTION":1.00270099,"ECCENTRICITY":0.0001874,"INCLINATION":0.0427,"RA_OF_ASC_NODE":316.3634,"ARG_OF_PERICENTER":359.6509,"MEAN_ANOMALY":268.5001,"EPHEMERIS_TYPE":0,"CLASSIFICATION_TYPE":"U","NORAD_CAT_ID":45246,"ELEMENT_SET_NO":999,"REV_AT_EPOCH":2221,"BSTAR":0,"MEAN_MOTION_DOT":-3.61e-6,"MEAN_MOTION_DDOT":0},{"OBJECT_NAME":"MERIDIAN 9","OBJECT_ID":"2020-015A","EPOCH":"2026-03-02T18:54:47.534688","MEAN_MOTION":2.00606621,"ECCENTRICITY":0.6892173,"INCLINATION":65.4905,"RA_OF_ASC_NODE":330.3267,"ARG_OF_PERICENTER":279.6854,"MEAN_ANOMALY":14.6789,"EPHEMERIS_TYPE":0,"CLASSIFICATION_TYPE":"U","NORAD_CAT_ID":45254,"ELEMENT_SET_NO":999,"REV_AT_EPOCH":4415,"BSTAR":0,"MEAN_MOTION_DOT":-4.9e-7,"MEAN_MOTION_DDOT":0},{"OBJECT_NAME":"FREGAT R/B","OBJECT_ID":"2020-015B","EPOCH":"2026-02-26T22:53:36.002688","MEAN_MOTION":1.99836827,"ECCENTRICITY":0.69325247,"INCLINATION":65.6391,"RA_OF_ASC_NODE":324.8321,"ARG_OF_PERICENTER":280.7278,"MEAN_ANOMALY":14.0788,"EPHEMERIS_TYPE":0,"CLASSIFICATION_TYPE":"U","NORAD_CAT_ID":45255,"ELEMENT_SET_NO":999,"REV_AT_EPOCH":4395,"BSTAR":0,"MEAN_MOTION_DOT":8.83e-6,"MEAN_MOTION_DDOT":0},{"OBJECT_NAME":"BEIDOU-3 G2","OBJECT_ID":"2020-017A","EPOCH":"2026-03-02T21:07:24.751776","MEAN_MOTION":1.00271169,"ECCENTRICITY":0.0002703,"INCLINATION":2.6513,"RA_OF_ASC_NODE":45.5391,"ARG_OF_PERICENTER":300.6479,"MEAN_ANOMALY":211.3441,"EPHEMERIS_TYPE":0,"CLASSIFICATION_TYPE":"U","NORAD_CAT_ID":45344,"ELEMENT_SET_NO":999,"REV_AT_EPOCH":2219,"BSTAR":0,"MEAN_MOTION_DOT":-1.55e-6,"MEAN_MOTION_DDOT":0},{"OBJECT_NAME":"AEHF-6 (USA 298)","OBJECT_ID":"2020-022B","EPOCH":"2026-03-02T20:00:38.438208","MEAN_MOTION":1.00269743,"ECCENTRICITY":0.0049224,"INCLINATION":2.7801,"RA_OF_ASC_NODE":299.8751,"ARG_OF_PERICENTER":14.7685,"MEAN_ANOMALY":283.8561,"EPHEMERIS_TYPE":0,"CLASSIFICATION_TYPE":"U","NORAD_CAT_ID":45465,"ELEMENT_SET_NO":999,"REV_AT_EPOCH":2194,"BSTAR":0,"MEAN_MOTION_DOT":-3.17e-6,"MEAN_MOTION_DDOT":0},{"OBJECT_NAME":"ATLAS 5 CENTAUR DEB","OBJECT_ID":"2018-079BT","EPOCH":"2026-03-01T17:39:53.668512","MEAN_MOTION":1.77790336,"ECCENTRICITY":0.46687344,"INCLINATION":13.2659,"RA_OF_ASC_NODE":53.4347,"ARG_OF_PERICENTER":275.3488,"MEAN_ANOMALY":34.953,"EPHEMERIS_TYPE":0,"CLASSIFICATION_TYPE":"U","NORAD_CAT_ID":45471,"ELEMENT_SET_NO":999,"REV_AT_EPOCH":4080,"BSTAR":0,"MEAN_MOTION_DOT":-1.6e-6,"MEAN_MOTION_DDOT":0},{"OBJECT_NAME":"ATLAS 5 CENTAUR DEB","OBJECT_ID":"2018-079BV","EPOCH":"2026-02-24T03:22:35.858784","MEAN_MOTION":1.70631288,"ECCENTRICITY":0.45942007,"INCLINATION":12.7956,"RA_OF_ASC_NODE":76.6693,"ARG_OF_PERICENTER":226.193,"MEAN_ANOMALY":85.2779,"EPHEMERIS_TYPE":0,"CLASSIFICATION_TYPE":"U","NORAD_CAT_ID":45473,"ELEMENT_SET_NO":999,"REV_AT_EPOCH":3978,"BSTAR":0,"MEAN_MOTION_DOT":-1.19e-6,"MEAN_MOTION_DDOT":0},{"OBJECT_NAME":"ATLAS 5 CENTAUR DEB","OBJECT_ID":"2018-079BW","EPOCH":"2026-03-02T00:58:20.764704","MEAN_MOTION":1.74192991,"ECCENTRICITY":0.4489358,"INCLINATION":12.9339,"RA_OF_ASC_NODE":70.5487,"ARG_OF_PERICENTER":238.8647,"MEAN_ANOMALY":69.5403,"EPHEMERIS_TYPE":0,"CLASSIFICATION_TYPE":"U","NORAD_CAT_ID":45474,"ELEMENT_SET_NO":999,"REV_AT_EPOCH":4112,"BSTAR":0,"MEAN_MOTION_DOT":-1.22e-6,"MEAN_MOTION_DDOT":0},{"OBJECT_NAME":"COSMOS 2546","OBJECT_ID":"2020-031A","EPOCH":"2026-02-28T20:33:15.393888","MEAN_MOTION":2.00633622,"ECCENTRICITY":0.70315663,"INCLINATION":63.1499,"RA_OF_ASC_NODE":80.3648,"ARG_OF_PERICENTER":265.7912,"MEAN_ANOMALY":18.3024,"EPHEMERIS_TYPE":0,"CLASSIFICATION_TYPE":"U","NORAD_CAT_ID":45608,"ELEMENT_SET_NO":999,"REV_AT_EPOCH":4229,"BSTAR":0,"MEAN_MOTION_DOT":-1.95e-6,"MEAN_MOTION_DDOT":0}]
