JCSAT-18 (KACIFIC 1)    
1 44868U 19091A   26061.82892068 -.00000217  00000+0  00000+0 0  9997
2 44868   0.0421 306.0100 0000212  18.0065 285.0089  1.00271459 22942
ELEKTRO-L 3             
1 44903U 19095A   26061.89016696 -.00000112  00000+0  00000+0 0  9997
2 44903   0.0318 324.4879 0001703 358.3374 234.2532  1.00270222 22646
SHIJIAN-20 (SJ-20)      
1 44910U 19097A   26061.71726219 -.00000082  00000+0  00000+0 0  9993
2 44910   4.6452  76.3699 0000124  16.2606  43.3034  1.00082950 22634
TJS-5                   
1 44978U 20002A   26061.89816963 -.00000359  00000+0  00000+0 0  9997
2 44978   0.2832 269.7409 0004057 120.4553 201.3294  1.00273114 22635
GSAT-30                 
1 45026U 20005A   26061.65864066 -.00000181  00000+0  00000+0 0  9999
2 45026   0.0275 249.9445 0000502 176.3195  54.2433  1.00270777 22443
EUTELSAT KONNECT        
1 45027U 20005B   26061.58941935  .00000032  00000+0  00000+0 0  9997
2 45027   0.0686  97.5210 0001032 221.0529  61.1603  1.00271015 23268
BLOCK DM-SL DEB         
1 45041U 19095C   26059.23620374 -.00000050  00000+0  00000+0 0  9991
2 45041   5.0866  74.7057 0389768   5.5175 355.1002  1.03004701 23215
JCSAT-17                
1 45245U 20013A   26061.83377822 -.00000330  00000+0  00000+0 0  9996
2 45245   5.3951 355.8218 0004808 348.7779 252.1235  1.00270289 22162
GEO-KOMPSAT-2B          
1 45246U 20013B   26061.82132830 -.00000361  00000+0  00000+0 0  9998
2 45246   0.0427 316.3634 0001874 359.6509 268.5001  1.00270099 22216
MERIDIAN 9              
1 45254U 20015A   26061.78805017 -.00000049  00000+0  00000+0 0  9991
2 45254  65.4905 330.3267 6892173 279.6854  14.6789  2.00606621 44154
FREGAT R/B              
1 45255U 20015B   26057.95388892  .00000883  00000+0  00000+0 0  9998
2 45255  65.6391 324.8321 6932524 280.7278  14.0788  1.99836827 43953
BEIDOU-3 G2             
1 45344U 20017A   26061.88014759 -.00000155  00000+0  00000+0 0  9997
2 45344   2.6513  45.5391 0002703 300.6479 211.3441  1.00271169 22194
AEHF-6 (USA 298)        
1 45465U 20022B   26061.83377822 -.00000317  00000+0  00000+0 0  9995
2 45465   2.7801 299.8751 0049224  14.7685 283.8561  1.00269743 21948
ATLAS 5 CENTAUR DEB     
1 45471U 18079BT  26060.73603783 -.00000160  00000+0  00000+0 0  9993
2 45471  13.2659  53.4347 4668734 275.3488  34.9530  1.77790336 40809
ATLAS 5 CENTAUR DEB     
1 45473U 18079BV  26055.14069281 -.00000119  00000+0  00000+0 0  9997
2 45473  12.7956  76.6693 4594200 226.1930  85.2779  1.70631288 39780
ATLAS 5 CENTAUR DEB     
1 45474U 18079BW  26061.04051811 -.00000122  00000+0  00000+0 0  9998
2 45474  12.9339  70.5487 4489358 238.8647  69.5403  1.74192991 41121
COSMOS 2546             
1 45608U 20031A   26059.85642817 -.00000195  00000+0  00000+0 0  9996
2 45608  63.1499  80.3648 7031566 265.7912  18.3024  2.00633622 42295
